[{"OBJECT_NAME":"BB4","OBJECT_ID":"2023-133B","EPOCH":"2026-03-09T21:37:27.149088","MEAN_MOTION":14.03089986,"ECCENTRICITY":0.00081277,"INCLINATION":80.9964,"RA_OF_ASC_NODE":101.1751,"ARG_OF_PERICENTER":265.8023,"MEAN_ANOMALY":94.2214,"EPHEMERIS_TYPE":0,"CLASSIFICATION_TYPE":"U","NORAD_CAT_ID":57757,"ELEMENT_SET_NO":999,"REV_AT_EPOCH":12736,"BSTAR":0.00015013184,"MEAN_MOTION_DOT":2.45e-6,"MEAN_MOTION_DDOT":0},{"OBJECT_NAME":"CZ-6A DEB","OBJECT_ID":"2024-140ABL","EPOCH":"2026-03-08T00:23:38.923872","MEAN_MOTION":14.13634398,"ECCENTRICITY":0.00749786,"INCLINATION":88.7921,"RA_OF_ASC_NODE":273.3637,"ARG_OF_PERICENTER":179.8583,"MEAN_ANOMALY":180.2638,"EPHEMERIS_TYPE":0,"CLASSIFICATION_TYPE":"U","NORAD_CAT_ID":61796,"ELEMENT_SET_NO":999,"REV_AT_EPOCH":7859,"BSTAR":0.00048759467,"MEAN_MOTION_DOT":9.59e-6,"MEAN_MOTION_DDOT":0}]
